[
    {
        "Altitude(m)": 610399.5770527979,
        "Argument of Periapsis(deg)": 0.0,
        "Eccentricity": 0.0,
        "Inclination(deg)": 60.0,
        "Latitude(deg)": 52.11146795757888,
        "Longitude(deg)": 92.5842826408108,
        "Mean Anomaly(deg)": 65.45450000000001,
        "RAAN(deg)": 145.0,
        "Satellite Name": "Test1 642",
        "Satellite Number": 642,
        "Semi-Major Axis(m)": 6980739.136638005,
        "Time(s)": 0
    },
    {
        "Altitude(m)": 610481.7280675619,
        "Argument of Periapsis(deg)": 0.00010418945913296404,
        "Eccentricity": 0.0,
        "Inclination(deg)": 60.0,
        "Latitude(deg)": 52.47107043637829,
        "Longitude(deg)": 93.36642091313094,
        "Mean Anomaly(deg)": 66.07460614546181,
        "RAAN(deg)": 144.99957995086027,
        "Satellite Name": "Test1 642",
        "Satellite Number": 642,
        "Semi-Major Axis(m)": 6980739.136638005,
        "Time(s)": 10
    }
]